{
    "links": {
        "self": "http://www.neowsapp.com/rest/v1/neo/3598900?api_key=iIulBulltgU6a56xZRHN4H3l9WmuAYTsLGpBGhQ2"
    },
    "id": "3598900",
    "neo_reference_id": "3598900",
    "name": "(2012 CL17)",
    "designation": "2012 CL17",
    "nasa_jpl_url": "http://ssd.jpl.nasa.gov/sbdb.cgi?sstr=3598900",
    "absolute_magnitude_h": 25.7,
    "estimated_diameter": {
        "kilometers": {
            "estimated_diameter_min": 0.0192555078,
            "estimated_diameter_max": 0.0430566244
        },
        "meters": {
            "estimated_diameter_min": 19.2555078188,
            "estimated_diameter_max": 43.0566244241
        },
        "miles": {
            "estimated_diameter_min": 0.0119648141,
            "estimated_diameter_max": 0.0267541378
        },
        "feet": {
            "estimated_diameter_min": 63.1742402722,
            "estimated_diameter_max": 141.2618956756
        }
    },
    "is_potentially_hazardous_asteroid": false,
    "close_approach_data": [
        {
            "close_approach_date": "1966-07-09",
            "close_approach_date_full": "1966-Jul-09 22:01",
            "epoch_date_close_approach": -109821540000,
            "relative_velocity": {
                "kilometers_per_second": "32.0545587742",
                "kilometers_per_hour": "115396.4115870188",
                "miles_per_hour": "71702.8425219451"
            },
            "miss_distance": {
                "astronomical": "0.3604250987",
                "lunar": "140.2053633943",
                "kilometers": "53918827.060059769",
                "miles": "33503605.5522880522"
            },
            "orbiting_body": "Earth"
        },
        {
            "close_approach_date": "2012-02-06",
            "close_approach_date_full": "2012-Feb-06 00:19",
            "epoch_date_close_approach": 1328487540000,
            "relative_velocity": {
                "kilometers_per_second": "21.793978933",
                "kilometers_per_hour": "78458.3241587446",
                "miles_per_hour": "48750.9514751933"
            },
            "miss_distance": {
                "astronomical": "0.011621078",
                "lunar": "4.520599342",
                "kilometers": "1738488.51590386",
                "miles": "1080246.672078868"
            },
            "orbiting_body": "Earth"
        }
    ],
    "orbital_data": {
        "orbit_id": "5",
        "orbit_determination_date": "2017-04-06 08:51:01",
        "first_observation_date": "2012-02-10",
        "last_observation_date": "2012-02-11",
        "data_arc_in_days": 1,
        "observations_used": 20,
        "orbit_uncertainty": "9",
        "minimum_orbit_intersection": ".00615729",
        "jupiter_tisserand_invariant": "3.651",
        "epoch_osculation": "2455968.5",
        "eccentricity": ".7038883994192721",
        "semi_major_axis": "1.855196185920005",
        "inclination": "4.389232885781064",
        "ascending_node_longitude": "320.5250402428118",
        "orbital_period": "922.9606617883696",
        "perihelion_distance": ".5493451120040344",
        "perihelion_argument": "81.18912960435142",
        "aphelion_distance": "3.161047259835975",
        "perihelion_time": "2455916.919186306753",
        "mean_anomaly": "20.11905132943437",
        "mean_motion": ".3900491265818935",
        "equinox": "J2000",
        "orbit_class": {
            "orbit_class_type": "APO",
            "orbit_class_description": "Near-Earth asteroid orbits which cross the Earth’s orbit similar to that of 1862 Apollo",
            "orbit_class_range": "a (semi-major axis) > 1.0 AU; q (perihelion) < 1.017 AU"
        }
    },
    "is_sentry_object": false
}